CCSDS_OMM_VERS = 2.0
CREATION_DATE  = 
ORIGINATOR     = 

OBJECT_NAME    = SL-14 R/B
OBJECT_ID      = 1991-042B
CENTER_NAME    = EARTH
REF_FRAME      = TEME
TIME_SYSTEM    = UTC
MEAN_ELEMENT_THEORY = SGP/SGP4

EPOCH          = 2025-12-24T19:15:18.698400
MEAN_MOTION    = 14.81749408
ECCENTRICITY   = .001834
INCLINATION    = 82.4936
RA_OF_ASC_NODE = 290.4123
ARG_OF_PERICENTER = 124.1055
MEAN_ANOMALY   = 236.1902

EPHEMERIS_TYPE = 0
CLASSIFICATION_TYPE = U
NORAD_CAT_ID   = 21423
ELEMENT_SET_NO = 999
REV_AT_EPOCH   = 84198
BSTAR          = .54608E-4
MEAN_MOTION_DOT = .455E-5
MEAN_MOTION_DDOT = 0

CCSDS_OMM_VERS = 2.0
CREATION_DATE  = 
ORIGINATOR     = 

OBJECT_NAME    = ERS-1
OBJECT_ID      = 1991-050A
CENTER_NAME    = EARTH
REF_FRAME      = TEME
TIME_SYSTEM    = UTC
MEAN_ELEMENT_THEORY = SGP/SGP4

EPOCH          = 2025-12-24T18:18:38.810016
MEAN_MOTION    = 14.39373607
ECCENTRICITY   = .0032929
INCLINATION    = 98.7902
RA_OF_ASC_NODE = 10.1182
ARG_OF_PERICENTER = 65.4711
MEAN_ANOMALY   = 294.9903

EPHEMERIS_TYPE = 0
CLASSIFICATION_TYPE = U
NORAD_CAT_ID   = 21574
ELEMENT_SET_NO = 999
REV_AT_EPOCH   = 80495
BSTAR          = .11447E-3
MEAN_MOTION_DOT = .312E-5
MEAN_MOTION_DDOT = 0

CCSDS_OMM_VERS = 2.0
CREATION_DATE  = 
ORIGINATOR     = 

OBJECT_NAME    = ARIANE 40 R/B
OBJECT_ID      = 1991-050F
CENTER_NAME    = EARTH
REF_FRAME      = TEME
TIME_SYSTEM    = UTC
MEAN_ELEMENT_THEORY = SGP/SGP4

EPOCH          = 2025-12-24T17:08:57.919200
MEAN_MOTION    = 14.42822552
ECCENTRICITY   = .0002113
INCLINATION    = 98.2149
RA_OF_ASC_NODE = 48.7121
ARG_OF_PERICENTER = 316.3427
MEAN_ANOMALY   = 43.7596

EPHEMERIS_TYPE = 0
CLASSIFICATION_TYPE = U
NORAD_CAT_ID   = 21610
ELEMENT_SET_NO = 999
REV_AT_EPOCH   = 80818
BSTAR          = .10682E-3
MEAN_MOTION_DOT = .314E-5
MEAN_MOTION_DDOT = 0

CCSDS_OMM_VERS = 2.0
CREATION_DATE  = 
ORIGINATOR     = 

OBJECT_NAME    = INTERCOSMOS 25
OBJECT_ID      = 1991-086A
CENTER_NAME    = EARTH
REF_FRAME      = TEME
TIME_SYSTEM    = UTC
MEAN_ELEMENT_THEORY = SGP/SGP4

EPOCH          = 2025-12-24T16:32:32.184096
MEAN_MOTION    = 12.11774690
ECCENTRICITY   = .1486334
INCLINATION    = 82.6082
RA_OF_ASC_NODE = 355.3470
ARG_OF_PERICENTER = 278.6286
MEAN_ANOMALY   = 64.9726

EPHEMERIS_TYPE = 0
CLASSIFICATION_TYPE = U
NORAD_CAT_ID   = 21819
ELEMENT_SET_NO = 999
REV_AT_EPOCH   = 48760
BSTAR          = .39784E-3
MEAN_MOTION_DOT = .1998E-4
MEAN_MOTION_DDOT = 0

CCSDS_OMM_VERS = 2.0
CREATION_DATE  = 
ORIGINATOR     = 

OBJECT_NAME    = SL-8 R/B
OBJECT_ID      = 1992-008B
CENTER_NAME    = EARTH
REF_FRAME      = TEME
TIME_SYSTEM    = UTC
MEAN_ELEMENT_THEORY = SGP/SGP4

EPOCH          = 2025-12-24T16:48:39.387168
MEAN_MOTION    = 13.75961594
ECCENTRICITY   = .0034423
INCLINATION    = 82.9273
RA_OF_ASC_NODE = 323.5496
ARG_OF_PERICENTER = 346.5424
MEAN_ANOMALY   = 187.0999

EPHEMERIS_TYPE = 0
CLASSIFICATION_TYPE = U
NORAD_CAT_ID   = 21876
ELEMENT_SET_NO = 999
REV_AT_EPOCH   = 69910
BSTAR          = .11521E-3
MEAN_MOTION_DOT = .127E-5
MEAN_MOTION_DDOT = 0

CCSDS_OMM_VERS = 2.0
CREATION_DATE  = 
ORIGINATOR     = 

OBJECT_NAME    = SL-8 R/B
OBJECT_ID      = 1992-020B
CENTER_NAME    = EARTH
REF_FRAME      = TEME
TIME_SYSTEM    = UTC
MEAN_ELEMENT_THEORY = SGP/SGP4

EPOCH          = 2025-12-24T19:59:25.443168
MEAN_MOTION    = 13.75530212
ECCENTRICITY   = .0029664
INCLINATION    = 82.9293
RA_OF_ASC_NODE = 209.3373
ARG_OF_PERICENTER = 144.7514
MEAN_ANOMALY   = 225.8426

EPHEMERIS_TYPE = 0
CLASSIFICATION_TYPE = U
NORAD_CAT_ID   = 21938
ELEMENT_SET_NO = 999
REV_AT_EPOCH   = 69084
BSTAR          = .12491E-3
MEAN_MOTION_DOT = .136E-5
MEAN_MOTION_DDOT = 0

CCSDS_OMM_VERS = 2.0
CREATION_DATE  = 
ORIGINATOR     = 

OBJECT_NAME    = USA 81
OBJECT_ID      = 1992-023A
CENTER_NAME    = EARTH
REF_FRAME      = TEME
TIME_SYSTEM    = UTC
MEAN_ELEMENT_THEORY = SGP/SGP4

EPOCH          = 2025-12-24T18:29:26.741760
MEAN_MOTION    = 14.32331156
ECCENTRICITY   = .000109
INCLINATION    = 85.0079
RA_OF_ASC_NODE = 174.6374
ARG_OF_PERICENTER = 86.9066
MEAN_ANOMALY   = 273.2251

EPHEMERIS_TYPE = 0
CLASSIFICATION_TYPE = U
NORAD_CAT_ID   = 21949
ELEMENT_SET_NO = 999
REV_AT_EPOCH   = 8406
BSTAR          = .64818E-4
MEAN_MOTION_DOT = .195E-5
MEAN_MOTION_DDOT = 0

CCSDS_OMM_VERS = 2.0
CREATION_DATE  = 
ORIGINATOR     = 

OBJECT_NAME    = COSMOS 2219
OBJECT_ID      = 1992-076A
CENTER_NAME    = EARTH
REF_FRAME      = TEME
TIME_SYSTEM    = UTC
MEAN_ELEMENT_THEORY = SGP/SGP4

EPOCH          = 2025-12-24T19:42:18.285408
MEAN_MOTION    = 14.14067604
ECCENTRICITY   = .0019373
INCLINATION    = 71.0579
RA_OF_ASC_NODE = 174.5771
ARG_OF_PERICENTER = 310.3138
MEAN_ANOMALY   = 49.6291

EPHEMERIS_TYPE = 0
CLASSIFICATION_TYPE = U
NORAD_CAT_ID   = 22219
ELEMENT_SET_NO = 999
REV_AT_EPOCH   = 70779
BSTAR          = .19882E-3
MEAN_MOTION_DOT = .332E-5
MEAN_MOTION_DDOT = 0

CCSDS_OMM_VERS = 2.0
CREATION_DATE  = 
ORIGINATOR     = 

OBJECT_NAME    = SL-16 R/B
OBJECT_ID      = 1992-076B
CENTER_NAME    = EARTH
REF_FRAME      = TEME
TIME_SYSTEM    = UTC
MEAN_ELEMENT_THEORY = SGP/SGP4

EPOCH          = 2025-12-24T17:47:12.254784
MEAN_MOTION    = 14.16845335
ECCENTRICITY   = .0014189
INCLINATION    = 71.0010
RA_OF_ASC_NODE = 346.2506
ARG_OF_PERICENTER = 218.0886
MEAN_ANOMALY   = 314.3799

EPHEMERIS_TYPE = 0
CLASSIFICATION_TYPE = U
NORAD_CAT_ID   = 22220
ELEMENT_SET_NO = 999
REV_AT_EPOCH   = 71121
BSTAR          = .62551E-4
MEAN_MOTION_DOT = .78E-6
MEAN_MOTION_DDOT = 0

CCSDS_OMM_VERS = 2.0
CREATION_DATE  = 
ORIGINATOR     = 

OBJECT_NAME    = COSMOS 2221
OBJECT_ID      = 1992-080A
CENTER_NAME    = EARTH
REF_FRAME      = TEME
TIME_SYSTEM    = UTC
MEAN_ELEMENT_THEORY = SGP/SGP4

EPOCH          = 2025-12-24T17:24:35.512128
MEAN_MOTION    = 14.95805456
ECCENTRICITY   = .001631
INCLINATION    = 82.5038
RA_OF_ASC_NODE = 350.8522
ARG_OF_PERICENTER = 85.1443
MEAN_ANOMALY   = 275.1640

EPHEMERIS_TYPE = 0
CLASSIFICATION_TYPE = U
NORAD_CAT_ID   = 22236
ELEMENT_SET_NO = 999
REV_AT_EPOCH   = 76958
BSTAR          = .18034E-3
MEAN_MOTION_DOT = .2043E-4
MEAN_MOTION_DDOT = 0

CCSDS_OMM_VERS = 2.0
CREATION_DATE  = 
ORIGINATOR     = 

OBJECT_NAME    = SL-16 R/B
OBJECT_ID      = 1992-093B
CENTER_NAME    = EARTH
REF_FRAME      = TEME
TIME_SYSTEM    = UTC
MEAN_ELEMENT_THEORY = SGP/SGP4

EPOCH          = 2025-12-24T19:53:29.406048
MEAN_MOTION    = 14.15435402
ECCENTRICITY   = .0002531
INCLINATION    = 71.0207
RA_OF_ASC_NODE = 161.4184
ARG_OF_PERICENTER = 32.5650
MEAN_ANOMALY   = 327.5628

EPHEMERIS_TYPE = 0
CLASSIFICATION_TYPE = U
NORAD_CAT_ID   = 22285
ELEMENT_SET_NO = 999
REV_AT_EPOCH   = 70256
BSTAR          = -.14452E-5
MEAN_MOTION_DOT = -.5E-6
MEAN_MOTION_DDOT = 0

CCSDS_OMM_VERS = 2.0
CREATION_DATE  = 
ORIGINATOR     = 

OBJECT_NAME    = COSMOS 2228
OBJECT_ID      = 1992-094A
CENTER_NAME    = EARTH
REF_FRAME      = TEME
TIME_SYSTEM    = UTC
MEAN_ELEMENT_THEORY = SGP/SGP4

EPOCH          = 2025-12-24T20:34:52.505760
MEAN_MOTION    = 14.96782884
ECCENTRICITY   = .0017529
INCLINATION    = 82.5191
RA_OF_ASC_NODE = 308.9394
ARG_OF_PERICENTER = 188.2234
MEAN_ANOMALY   = 171.8703

EPHEMERIS_TYPE = 0
CLASSIFICATION_TYPE = U
NORAD_CAT_ID   = 22286
ELEMENT_SET_NO = 999
REV_AT_EPOCH   = 76486
BSTAR          = .19862E-3
MEAN_MOTION_DOT = .2304E-4
MEAN_MOTION_DDOT = 0

