SL-14 R/B               
1 21423U 91042B   25358.80229975  .00000455  00000+0  54608-4 0  9993
2 21423  82.4936 290.4123 0018340 124.1055 236.1902 14.81749408841980
ERS-1                   
1 21574U 91050A   25358.76294919  .00000312  00000+0  11447-3 0  9999
2 21574  98.7902  10.1182 0032929  65.4711 294.9903 14.39373607804953
ARIANE 40 R/B           
1 21610U 91050F   25358.71455925  .00000314  00000+0  10682-3 0  9993
2 21610  98.2149  48.7121 0002113 316.3427  43.7596 14.42822552808185
INTERCOSMOS 25          
1 21819U 91086A   25358.68926139  .00001998  00000+0  39784-3 0  9992
2 21819  82.6082 355.3470 1486334 278.6286  64.9726 12.11774690487601
SL-8 R/B                
1 21876U 92008B   25358.70045587  .00000127  00000+0  11521-3 0  9994
2 21876  82.9273 323.5496 0034423 346.5424 187.0999 13.75961594699101
SL-8 R/B                
1 21938U 92020B   25358.83293337  .00000136  00000+0  12491-3 0  9996
2 21938  82.9293 209.3373 0029664 144.7514 225.8426 13.75530212690843
USA 81                  
1 21949U 92023A   25358.77044840  .00000195  00000+0  64818-4 0  9993
2 21949  85.0079 174.6374 0001090  86.9066 273.2251 14.32331156 84062
COSMOS 2219             
1 22219U 92076A   25358.82104497  .00000332  00000+0  19882-3 0  9996
2 22219  71.0579 174.5771 0019373 310.3138  49.6291 14.14067604707795
SL-16 R/B               
1 22220U 92076B   25358.74111406  .00000078  00000+0  62551-4 0  9996
2 22220  71.0010 346.2506 0014189 218.0886 314.3799 14.16845335711219
COSMOS 2221             
1 22236U 92080A   25358.72541102  .00002043  00000+0  18034-3 0  9996
2 22236  82.5038 350.8522 0016310  85.1443 275.1640 14.95805456769581
SL-16 R/B               
1 22285U 92093B   25358.82881257 -.00000050  00000+0 -14452-5 0  9993
2 22285  71.0207 161.4184 0002531  32.5650 327.5628 14.15435402702567
COSMOS 2228             
1 22286U 92094A   25358.85755215  .00002304  00000+0  19862-3 0  9992
2 22286  82.5191 308.9394 0017529 188.2234 171.8703 14.96782884764861
